[{"OBJECT_NAME":"STARLINK-11670 [DTC]","OBJECT_ID":"2025-119E","EPOCH":"2025-09-03T09:17:33.716256","MEAN_MOTION":15.70862555,"ECCENTRICITY":0.00016128,"INCLINATION":43,"RA_OF_ASC_NODE":258.4073,"ARG_OF_PERICENTER":279.2562,"MEAN_ANOMALY":80.8123,"EPHEMERIS_TYPE":0,"CLASSIFICATION_TYPE":"U","NORAD_CAT_ID":64237,"ELEMENT_SET_NO":999,"REV_AT_EPOCH":1578,"BSTAR":0.001575795,"MEAN_MOTION_DOT":0.0020706,"MEAN_MOTION_DDOT":0},{"OBJECT_NAME":"STARLINK-11708 [DTC]","OBJECT_ID":"2025-119F","EPOCH":"2025-09-03T09:25:12.503712","MEAN_MOTION":15.70878258,"ECCENTRICITY":0.00014674,"INCLINATION":42.998,"RA_OF_ASC_NODE":258.4484,"ARG_OF_PERICENTER":283.1977,"MEAN_ANOMALY":76.8727,"EPHEMERIS_TYPE":0,"CLASSIFICATION_TYPE":"U","NORAD_CAT_ID":64238,"ELEMENT_SET_NO":999,"REV_AT_EPOCH":1578,"BSTAR":0.0014899517,"MEAN_MOTION_DOT":0.00195613,"MEAN_MOTION_DDOT":0},{"OBJECT_NAME":"STARLINK-11683 [DTC]","OBJECT_ID":"2025-119G","EPOCH":"2025-09-03T22:00:27.186048","MEAN_MOTION":15.70837273,"ECCENTRICITY":0.00017262,"INCLINATION":42.9982,"RA_OF_ASC_NODE":254.6136,"ARG_OF_PERICENTER":267.2472,"MEAN_ANOMALY":92.8198,"EPHEMERIS_TYPE":0,"CLASSIFICATION_TYPE":"U","NORAD_CAT_ID":64239,"ELEMENT_SET_NO":999,"REV_AT_EPOCH":1587,"BSTAR":0.0019455305,"MEAN_MOTION_DOT":0.00257035,"MEAN_MOTION_DDOT":0},{"OBJECT_NAME":"STARLINK-11684 [DTC]","OBJECT_ID":"2025-119H","EPOCH":"2025-09-03T04:27:35.599680","MEAN_MOTION":15.70832314,"ECCENTRICITY":0.0004456,"INCLINATION":42.9987,"RA_OF_ASC_NODE":259.4698,"ARG_OF_PERICENTER":300.3661,"MEAN_ANOMALY":59.6766,"EPHEMERIS_TYPE":0,"CLASSIFICATION_TYPE":"U","NORAD_CAT_ID":64240,"ELEMENT_SET_NO":999,"REV_AT_EPOCH":1575,"BSTAR":0.0033092453,"MEAN_MOTION_DOT":0.00447765,"MEAN_MOTION_DDOT":0},{"OBJECT_NAME":"STARLINK-11689 [DTC]","OBJECT_ID":"2025-119J","EPOCH":"2025-09-03T17:56:21.436512","MEAN_MOTION":15.70946415,"ECCENTRICITY":0.00019256,"INCLINATION":42.9985,"RA_OF_ASC_NODE":255.9355,"ARG_OF_PERICENTER":288.117,"MEAN_ANOMALY":71.9488,"EPHEMERIS_TYPE":0,"CLASSIFICATION_TYPE":"U","NORAD_CAT_ID":64241,"ELEMENT_SET_NO":999,"REV_AT_EPOCH":1584,"BSTAR":0.001963875,"MEAN_MOTION_DOT":0.00260775,"MEAN_MOTION_DDOT":0},{"OBJECT_NAME":"STARLINK-11690 [DTC]","OBJECT_ID":"2025-119K","EPOCH":"2025-09-03T17:48:43.415424","MEAN_MOTION":15.71022611,"ECCENTRICITY":0.0001614,"INCLINATION":42.9982,"RA_OF_ASC_NODE":255.8911,"ARG_OF_PERICENTER":7.9041,"MEAN_ANOMALY":352.1852,"EPHEMERIS_TYPE":0,"CLASSIFICATION_TYPE":"U","NORAD_CAT_ID":64242,"ELEMENT_SET_NO":999,"REV_AT_EPOCH":1584,"BSTAR":0.0024238603,"MEAN_MOTION_DOT":0.00325548,"MEAN_MOTION_DDOT":0},{"OBJECT_NAME":"STARLINK-11694 [DTC]","OBJECT_ID":"2025-119L","EPOCH":"2025-09-03T09:32:51.228096","MEAN_MOTION":15.70853426,"ECCENTRICITY":0.00011754,"INCLINATION":42.9974,"RA_OF_ASC_NODE":258.4884,"ARG_OF_PERICENTER":255.8722,"MEAN_ANOMALY":104.2015,"EPHEMERIS_TYPE":0,"CLASSIFICATION_TYPE":"U","NORAD_CAT_ID":64243,"ELEMENT_SET_NO":999,"REV_AT_EPOCH":1578,"BSTAR":0.0010983031,"MEAN_MOTION_DOT":0.00143008,"MEAN_MOTION_DDOT":0},{"OBJECT_NAME":"STARLINK-11710 [DTC]","OBJECT_ID":"2025-119M","EPOCH":"2025-09-03T09:09:54.843264","MEAN_MOTION":15.70823001,"ECCENTRICITY":0.00013312,"INCLINATION":42.9976,"RA_OF_ASC_NODE":258.3617,"ARG_OF_PERICENTER":295.2762,"MEAN_ANOMALY":64.7967,"EPHEMERIS_TYPE":0,"CLASSIFICATION_TYPE":"U","NORAD_CAT_ID":64244,"ELEMENT_SET_NO":999,"REV_AT_EPOCH":1578,"BSTAR":0.00019140752,"MEAN_MOTION_DOT":0.00024166,"MEAN_MOTION_DDOT":0},{"OBJECT_NAME":"STARLINK-11704 [DTC]","OBJECT_ID":"2025-119N","EPOCH":"2025-09-03T22:08:06.348480","MEAN_MOTION":15.70794291,"ECCENTRICITY":0.00011308,"INCLINATION":42.9964,"RA_OF_ASC_NODE":254.6551,"ARG_OF_PERICENTER":297.9068,"MEAN_ANOMALY":62.1685,"EPHEMERIS_TYPE":0,"CLASSIFICATION_TYPE":"U","NORAD_CAT_ID":64245,"ELEMENT_SET_NO":999,"REV_AT_EPOCH":1587,"BSTAR":0.0017149035,"MEAN_MOTION_DOT":0.00225231,"MEAN_MOTION_DDOT":0},{"OBJECT_NAME":"STARLINK-34203","OBJECT_ID":"2025-119P","EPOCH":"2025-09-03T09:05:34.794816","MEAN_MOTION":15.27595259,"ECCENTRICITY":0.00021766,"INCLINATION":42.999,"RA_OF_ASC_NODE":284.7917,"ARG_OF_PERICENTER":278.8562,"MEAN_ANOMALY":81.2043,"EPHEMERIS_TYPE":0,"CLASSIFICATION_TYPE":"U","NORAD_CAT_ID":64246,"ELEMENT_SET_NO":999,"REV_AT_EPOCH":1553,"BSTAR":0.0017006501,"MEAN_MOTION_DOT":0.00046857,"MEAN_MOTION_DDOT":0},{"OBJECT_NAME":"STARLINK-33865","OBJECT_ID":"2025-119Q","EPOCH":"2025-09-03T19:42:28.575648","MEAN_MOTION":15.27591359,"ECCENTRICITY":0.00013055,"INCLINATION":43.0025,"RA_OF_ASC_NODE":282.0913,"ARG_OF_PERICENTER":274.9372,"MEAN_ANOMALY":85.1331,"EPHEMERIS_TYPE":0,"CLASSIFICATION_TYPE":"U","NORAD_CAT_ID":64247,"ELEMENT_SET_NO":999,"REV_AT_EPOCH":1556,"BSTAR":0.00037194229,"MEAN_MOTION_DOT":9.99e-5,"MEAN_MOTION_DDOT":0},{"OBJECT_NAME":"STARLINK-34234","OBJECT_ID":"2025-119R","EPOCH":"2025-09-03T09:20:25.836288","MEAN_MOTION":15.27569686,"ECCENTRICITY":8.149e-5,"INCLINATION":42.9996,"RA_OF_ASC_NODE":284.8584,"ARG_OF_PERICENTER":260.8008,"MEAN_ANOMALY":99.2751,"EPHEMERIS_TYPE":0,"CLASSIFICATION_TYPE":"U","NORAD_CAT_ID":64248,"ELEMENT_SET_NO":999,"REV_AT_EPOCH":1552,"BSTAR":0.0019325225,"MEAN_MOTION_DOT":0.00053285,"MEAN_MOTION_DDOT":0},{"OBJECT_NAME":"STARLINK-34256","OBJECT_ID":"2025-119S","EPOCH":"2025-09-03T19:53:36.318912","MEAN_MOTION":15.27605904,"ECCENTRICITY":0.00029029,"INCLINATION":43.0017,"RA_OF_ASC_NODE":282.1438,"ARG_OF_PERICENTER":266.3345,"MEAN_ANOMALY":93.7175,"EPHEMERIS_TYPE":0,"CLASSIFICATION_TYPE":"U","NORAD_CAT_ID":64249,"ELEMENT_SET_NO":999,"REV_AT_EPOCH":1559,"BSTAR":0.001827625,"MEAN_MOTION_DOT":0.00050418,"MEAN_MOTION_DDOT":0},{"OBJECT_NAME":"STARLINK-34229","OBJECT_ID":"2025-119T","EPOCH":"2025-09-03T03:29:40.617600","MEAN_MOTION":15.27613238,"ECCENTRICITY":1.981e-5,"INCLINATION":42.9988,"RA_OF_ASC_NODE":286.4836,"ARG_OF_PERICENTER":260.8983,"MEAN_ANOMALY":99.1846,"EPHEMERIS_TYPE":0,"CLASSIFICATION_TYPE":"U","NORAD_CAT_ID":64250,"ELEMENT_SET_NO":999,"REV_AT_EPOCH":1548,"BSTAR":0.0013347711,"MEAN_MOTION_DOT":0.00036688,"MEAN_MOTION_DDOT":0},{"OBJECT_NAME":"STARLINK-34224","OBJECT_ID":"2025-119U","EPOCH":"2025-09-03T19:48:02.892672","MEAN_MOTION":15.27574476,"ECCENTRICITY":0.00014129,"INCLINATION":43.0022,"RA_OF_ASC_NODE":282.1218,"ARG_OF_PERICENTER":280.6568,"MEAN_ANOMALY":79.4124,"EPHEMERIS_TYPE":0,"CLASSIFICATION_TYPE":"U","NORAD_CAT_ID":64251,"ELEMENT_SET_NO":999,"REV_AT_EPOCH":1559,"BSTAR":0.00097649054,"MEAN_MOTION_DOT":0.00026702,"MEAN_MOTION_DDOT":0},{"OBJECT_NAME":"STARLINK-34215","OBJECT_ID":"2025-119V","EPOCH":"2025-09-03T09:14:50.014176","MEAN_MOTION":15.27592067,"ECCENTRICITY":0.00019704,"INCLINATION":42.9983,"RA_OF_ASC_NODE":284.8366,"ARG_OF_PERICENTER":290.2924,"MEAN_ANOMALY":69.7716,"EPHEMERIS_TYPE":0,"CLASSIFICATION_TYPE":"U","NORAD_CAT_ID":64252,"ELEMENT_SET_NO":999,"REV_AT_EPOCH":1552,"BSTAR":0.0016544622,"MEAN_MOTION_DOT":0.00045565,"MEAN_MOTION_DDOT":0},{"OBJECT_NAME":"STARLINK-33893","OBJECT_ID":"2025-119W","EPOCH":"2025-09-03T19:01:58.599840","MEAN_MOTION":15.27634425,"ECCENTRICITY":0.00018208,"INCLINATION":42.9987,"RA_OF_ASC_NODE":282.7347,"ARG_OF_PERICENTER":294.4338,"MEAN_ANOMALY":65.6323,"EPHEMERIS_TYPE":0,"CLASSIFICATION_TYPE":"U","NORAD_CAT_ID":64253,"ELEMENT_SET_NO":999,"REV_AT_EPOCH":1558,"BSTAR":0.0022094011,"MEAN_MOTION_DOT":0.00061144,"MEAN_MOTION_DDOT":0},{"OBJECT_NAME":"STARLINK-34183","OBJECT_ID":"2025-119X","EPOCH":"2025-09-03T19:16:47.188416","MEAN_MOTION":15.27624732,"ECCENTRICITY":0.00020827,"INCLINATION":42.9998,"RA_OF_ASC_NODE":282.814,"ARG_OF_PERICENTER":267.7514,"MEAN_ANOMALY":92.3099,"EPHEMERIS_TYPE":0,"CLASSIFICATION_TYPE":"U","NORAD_CAT_ID":64254,"ELEMENT_SET_NO":999,"REV_AT_EPOCH":1558,"BSTAR":0.0014650938,"MEAN_MOTION_DOT":0.00040331,"MEAN_MOTION_DDOT":0},{"OBJECT_NAME":"STARLINK-34211","OBJECT_ID":"2025-119Y","EPOCH":"2025-09-03T19:22:20.513568","MEAN_MOTION":15.27576099,"ECCENTRICITY":6.238e-5,"INCLINATION":42.9981,"RA_OF_ASC_NODE":282.843,"ARG_OF_PERICENTER":262.5826,"MEAN_ANOMALY":97.4955,"EPHEMERIS_TYPE":0,"CLASSIFICATION_TYPE":"U","NORAD_CAT_ID":64255,"ELEMENT_SET_NO":999,"REV_AT_EPOCH":1558,"BSTAR":0.00095768307,"MEAN_MOTION_DOT":0.00026182,"MEAN_MOTION_DDOT":0},{"OBJECT_NAME":"STARLINK-34329","OBJECT_ID":"2025-120A","EPOCH":"2025-09-03T18:56:01.315968","MEAN_MOTION":15.39565826,"ECCENTRICITY":0.00015965,"INCLINATION":53.156,"RA_OF_ASC_NODE":265.3438,"ARG_OF_PERICENTER":83.9021,"MEAN_ANOMALY":276.2166,"EPHEMERIS_TYPE":0,"CLASSIFICATION_TYPE":"U","NORAD_CAT_ID":64256,"ELEMENT_SET_NO":999,"REV_AT_EPOCH":1530,"BSTAR":0.003362345,"MEAN_MOTION_DOT":0.00136278,"MEAN_MOTION_DDOT":0},{"OBJECT_NAME":"STARLINK-34352","OBJECT_ID":"2025-120B","EPOCH":"2025-09-01T19:24:54.234720","MEAN_MOTION":15.39658024,"ECCENTRICITY":0.00015831,"INCLINATION":53.1585,"RA_OF_ASC_NODE":274.3134,"ARG_OF_PERICENTER":82.9107,"MEAN_ANOMALY":277.2078,"EPHEMERIS_TYPE":0,"CLASSIFICATION_TYPE":"U","NORAD_CAT_ID":64257,"ELEMENT_SET_NO":999,"REV_AT_EPOCH":1494,"BSTAR":0.0013679095,"MEAN_MOTION_DOT":0.00054779,"MEAN_MOTION_DDOT":0},{"OBJECT_NAME":"STARLINK-34308","OBJECT_ID":"2025-120C","EPOCH":"2025-09-03T18:29:16.785888","MEAN_MOTION":15.39686259,"ECCENTRICITY":0.00017967,"INCLINATION":53.1574,"RA_OF_ASC_NODE":265.2265,"ARG_OF_PERICENTER":56.6058,"MEAN_ANOMALY":303.5118,"EPHEMERIS_TYPE":0,"CLASSIFICATION_TYPE":"U","NORAD_CAT_ID":64258,"ELEMENT_SET_NO":999,"REV_AT_EPOCH":1524,"BSTAR":0.0023834028,"MEAN_MOTION_DOT":0.00096359,"MEAN_MOTION_DDOT":0},{"OBJECT_NAME":"STARLINK-34306","OBJECT_ID":"2025-120D","EPOCH":"2025-09-03T11:28:33.137184","MEAN_MOTION":15.39606197,"ECCENTRICITY":0.00010326,"INCLINATION":53.1561,"RA_OF_ASC_NODE":266.2445,"ARG_OF_PERICENTER":54.6388,"MEAN_ANOMALY":305.4713,"EPHEMERIS_TYPE":0,"CLASSIFICATION_TYPE":"U","NORAD_CAT_ID":64259,"ELEMENT_SET_NO":999,"REV_AT_EPOCH":1520,"BSTAR":0.0013211636,"MEAN_MOTION_DOT":0.00052788,"MEAN_MOTION_DDOT":0}]
